[{
    "OBJECT_NAME": "STARLINK-1642",
    "OBJECT_ID": "2020-057AP",
    "EPOCH": "2020-09-09T12:00:00.999648",
    "MEAN_MOTION": 15.72221371,
    "ECCENTRICITY": 8.19e-5,
    "INCLINATION": 52.9974,
    "RA_OF_ASC_NODE": 331.4883,
    "ARG_OF_PERICENTER": 47.3812,
    "MEAN_ANOMALY": 306.8853,
    "EPHEMERIS_TYPE": 0,
    "CLASSIFICATION_TYPE": "U",
    "NORAD_CAT_ID": 46154,
    "ELEMENT_SET_NO": 999,
    "REV_AT_EPOCH": 413,
    "BSTAR": -2.8311e-5,
    "MEAN_MOTION_DOT": -4.42e-5,
    "MEAN_MOTION_DDOT": 0
},{
    "OBJECT_NAME": "STARLINK-1667",
    "OBJECT_ID": "2020-057AQ",
    "EPOCH": "2020-09-09T06:00:00.999648",
    "MEAN_MOTION": 15.66242588,
    "ECCENTRICITY": 0.0001149,
    "INCLINATION": 52.999,
    "RA_OF_ASC_NODE": 333.563,
    "ARG_OF_PERICENTER": 62.6904,
    "MEAN_ANOMALY": 274.4793,
    "EPHEMERIS_TYPE": 0,
    "CLASSIFICATION_TYPE": "U",
    "NORAD_CAT_ID": 46155,
    "ELEMENT_SET_NO": 999,
    "REV_AT_EPOCH": 177,
    "BSTAR": 0.00021929,
    "MEAN_MOTION_DOT": 0.00022563,
    "MEAN_MOTION_DDOT": 0
},{
    "OBJECT_NAME": "STARLINK-1545",
    "OBJECT_ID": "2020-057AR",
    "EPOCH": "2020-09-09T12:00:00.999648",
    "MEAN_MOTION": 15.66248654,
    "ECCENTRICITY": 0.0001489,
    "INCLINATION": 52.9997,
    "RA_OF_ASC_NODE": 332.408,
    "ARG_OF_PERICENTER": 57.3913,
    "MEAN_ANOMALY": 217.3226,
    "EPHEMERIS_TYPE": 0,
    "CLASSIFICATION_TYPE": "U",
    "NORAD_CAT_ID": 46156,
    "ELEMENT_SET_NO": 999,
    "REV_AT_EPOCH": 412,
    "BSTAR": -3.1299e-5,
    "MEAN_MOTION_DOT": -3.852e-5,
    "MEAN_MOTION_DDOT": 0
},{
    "OBJECT_NAME": "STARLINK-1587",
    "OBJECT_ID": "2020-057AS",
    "EPOCH": "2020-09-09T12:00:00.999648",
    "MEAN_MOTION": 15.66267678,
    "ECCENTRICITY": 0.0001329,
    "INCLINATION": 52.9993,
    "RA_OF_ASC_NODE": 332.3375,
    "ARG_OF_PERICENTER": 38.844,
    "MEAN_ANOMALY": 269.8273,
    "EPHEMERIS_TYPE": 0,
    "CLASSIFICATION_TYPE": "U",
    "NORAD_CAT_ID": 46157,
    "ELEMENT_SET_NO": 999,
    "REV_AT_EPOCH": 412,
    "BSTAR": -2.9138e-5,
    "MEAN_MOTION_DOT": -3.627e-5,
    "MEAN_MOTION_DDOT": 0
},{
    "OBJECT_NAME": "STARLINK-1589",
    "OBJECT_ID": "2020-057AT",
    "EPOCH": "2020-09-09T06:00:00.999648",
    "MEAN_MOTION": 15.62328449,
    "ECCENTRICITY": 0.0001517,
    "INCLINATION": 53.0013,
    "RA_OF_ASC_NODE": 333.9926,
    "ARG_OF_PERICENTER": 53.1982,
    "MEAN_ANOMALY": 90.649,
    "EPHEMERIS_TYPE": 0,
    "CLASSIFICATION_TYPE": "U",
    "NORAD_CAT_ID": 46158,
    "ELEMENT_SET_NO": 999,
    "REV_AT_EPOCH": 177,
    "BSTAR": 0.0015015,
    "MEAN_MOTION_DOT": 0.00137001,
    "MEAN_MOTION_DDOT": 0
},{
    "OBJECT_NAME": "STARLINK-1595",
    "OBJECT_ID": "2020-057AU",
    "EPOCH": "2020-09-09T06:00:00.999648",
    "MEAN_MOTION": 15.61133711,
    "ECCENTRICITY": 0.0001078,
    "INCLINATION": 53.0028,
    "RA_OF_ASC_NODE": 334.0188,
    "ARG_OF_PERICENTER": 6.4343,
    "MEAN_ANOMALY": 122.7212,
    "EPHEMERIS_TYPE": 0,
    "CLASSIFICATION_TYPE": "U",
    "NORAD_CAT_ID": 46159,
    "ELEMENT_SET_NO": 999,
    "REV_AT_EPOCH": 177,
    "BSTAR": -0.01384,
    "MEAN_MOTION_DOT": -0.01081724,
    "MEAN_MOTION_DDOT": 0
},{
    "OBJECT_NAME": "STARLINK-1598",
    "OBJECT_ID": "2020-057AV",
    "EPOCH": "2020-09-09T06:00:00.999648",
    "MEAN_MOTION": 15.66253278,
    "ECCENTRICITY": 8.99e-5,
    "INCLINATION": 52.9997,
    "RA_OF_ASC_NODE": 333.6056,
    "ARG_OF_PERICENTER": 32.348,
    "MEAN_ANOMALY": 287.736,
    "EPHEMERIS_TYPE": 0,
    "CLASSIFICATION_TYPE": "U",
    "NORAD_CAT_ID": 46160,
    "ELEMENT_SET_NO": 999,
    "REV_AT_EPOCH": 177,
    "BSTAR": 0.00021562,
    "MEAN_MOTION_DOT": 0.00022184,
    "MEAN_MOTION_DDOT": 0
},{
    "OBJECT_NAME": "STARLINK-1600",
    "OBJECT_ID": "2020-057AW",
    "EPOCH": "2020-09-09T06:00:00.999648",
    "MEAN_MOTION": 15.66240563,
    "ECCENTRICITY": 0.0001497,
    "INCLINATION": 52.9977,
    "RA_OF_ASC_NODE": 333.6245,
    "ARG_OF_PERICENTER": 74.0433,
    "MEAN_ANOMALY": 233.2309,
    "EPHEMERIS_TYPE": 0,
    "CLASSIFICATION_TYPE": "U",
    "NORAD_CAT_ID": 46161,
    "ELEMENT_SET_NO": 999,
    "REV_AT_EPOCH": 182,
    "BSTAR": 0.00023181,
    "MEAN_MOTION_DOT": 0.00023885,
    "MEAN_MOTION_DDOT": 0
},{
    "OBJECT_NAME": "STARLINK-1603",
    "OBJECT_ID": "2020-057AX",
    "EPOCH": "2020-09-09T06:00:00.999648",
    "MEAN_MOTION": 15.66255955,
    "ECCENTRICITY": 9.45e-5,
    "INCLINATION": 52.9996,
    "RA_OF_ASC_NODE": 333.5938,
    "ARG_OF_PERICENTER": 34.8007,
    "MEAN_ANOMALY": 288.243,
    "EPHEMERIS_TYPE": 0,
    "CLASSIFICATION_TYPE": "U",
    "NORAD_CAT_ID": 46162,
    "ELEMENT_SET_NO": 999,
    "REV_AT_EPOCH": 177,
    "BSTAR": 0.0002168,
    "MEAN_MOTION_DOT": 0.00022312,
    "MEAN_MOTION_DDOT": 0
},{
    "OBJECT_NAME": "STARLINK-1610",
    "OBJECT_ID": "2020-057AY",
    "EPOCH": "2020-09-09T06:00:00.999648",
    "MEAN_MOTION": 15.66287859,
    "ECCENTRICITY": 0.0001373,
    "INCLINATION": 52.9997,
    "RA_OF_ASC_NODE": 333.5886,
    "ARG_OF_PERICENTER": 71.8162,
    "MEAN_ANOMALY": 256.5215,
    "EPHEMERIS_TYPE": 0,
    "CLASSIFICATION_TYPE": "U",
    "NORAD_CAT_ID": 46163,
    "ELEMENT_SET_NO": 999,
    "REV_AT_EPOCH": 177,
    "BSTAR": 0.00021939,
    "MEAN_MOTION_DOT": 0.00022615,
    "MEAN_MOTION_DDOT": 0
},{
    "OBJECT_NAME": "STARLINK-1612",
    "OBJECT_ID": "2020-057AZ",
    "EPOCH": "2020-09-09T06:00:00.999648",
    "MEAN_MOTION": 15.66258015,
    "ECCENTRICITY": 0.0001262,
    "INCLINATION": 52.9993,
    "RA_OF_ASC_NODE": 333.5792,
    "ARG_OF_PERICENTER": 328.7259,
    "MEAN_ANOMALY": 2.0245,
    "EPHEMERIS_TYPE": 0,
    "CLASSIFICATION_TYPE": "U",
    "NORAD_CAT_ID": 46164,
    "ELEMENT_SET_NO": 999,
    "REV_AT_EPOCH": 177,
    "BSTAR": 0.00021763,
    "MEAN_MOTION_DOT": 0.00022401,
    "MEAN_MOTION_DDOT": 0
},{
    "OBJECT_NAME": "STARLINK-1613",
    "OBJECT_ID": "2020-057BA",
    "EPOCH": "2020-09-09T12:00:00.999648",
    "MEAN_MOTION": 15.62827921,
    "ECCENTRICITY": 0.0001424,
    "INCLINATION": 53.0013,
    "RA_OF_ASC_NODE": 332.7499,
    "ARG_OF_PERICENTER": 57.3139,
    "MEAN_ANOMALY": 50.433,
    "EPHEMERIS_TYPE": 0,
    "CLASSIFICATION_TYPE": "U",
    "NORAD_CAT_ID": 46165,
    "ELEMENT_SET_NO": 999,
    "REV_AT_EPOCH": 412,
    "BSTAR": -0.0011578,
    "MEAN_MOTION_DOT": -0.00105492,
    "MEAN_MOTION_DDOT": 0
},{
    "OBJECT_NAME": "STARLINK-1615",
    "OBJECT_ID": "2020-057BB",
    "EPOCH": "2020-09-09T06:00:00.999648",
    "MEAN_MOTION": 15.60311524,
    "ECCENTRICITY": 0.000152,
    "INCLINATION": 52.9978,
    "RA_OF_ASC_NODE": 333.9961,
    "ARG_OF_PERICENTER": 48.9298,
    "MEAN_ANOMALY": 96.7426,
    "EPHEMERIS_TYPE": 0,
    "CLASSIFICATION_TYPE": "U",
    "NORAD_CAT_ID": 46166,
    "ELEMENT_SET_NO": 999,
    "REV_AT_EPOCH": 182,
    "BSTAR": -0.014512,
    "MEAN_MOTION_DOT": -0.01097275,
    "MEAN_MOTION_DDOT": 0
},{
    "OBJECT_NAME": "STARLINK-1626",
    "OBJECT_ID": "2020-057BC",
    "EPOCH": "2020-09-09T06:00:00.999648",
    "MEAN_MOTION": 15.62756437,
    "ECCENTRICITY": 0.0001608,
    "INCLINATION": 52.9994,
    "RA_OF_ASC_NODE": 333.9637,
    "ARG_OF_PERICENTER": 314.5553,
    "MEAN_ANOMALY": 189.7265,
    "EPHEMERIS_TYPE": 0,
    "CLASSIFICATION_TYPE": "U",
    "NORAD_CAT_ID": 46167,
    "ELEMENT_SET_NO": 999,
    "REV_AT_EPOCH": 177,
    "BSTAR": 0.00030662,
    "MEAN_MOTION_DOT": 0.0002764,
    "MEAN_MOTION_DDOT": 0
}]
